{
  "AC": {
    "calling_code": "247",
    "calling_code_all": "247",
    "code": "AC",
    "emoji": "ğŸ‡¦ğŸ‡¨",
    "iso_codes": "",
    "name": "Ascension Island",
    "name_cn": "é˜¿æ£®æ¾å²›",
    "unicode": "U+1F1E6 U+1F1E8"
  },
  "AD": {
    "calling_code": "376",
    "calling_code_all": "376",
    "code": "AD",
    "emoji": "ğŸ‡¦ğŸ‡©",
    "iso_codes": "",
    "name": "Andorra",
    "name_cn": "å®‰é“å°”",
    "unicode": "U+1F1E6 U+1F1E9"
  },
  "AE": {
    "calling_code": "971",
    "calling_code_all": "971",
    "code": "AE",
    "emoji": "ğŸ‡¦ğŸ‡ª",
    "iso_codes": "",
    "name": "United Arab Emirates",
    "name_cn": "ç¾å›½",
    "unicode": "U+1F1E6 U+1F1EA"
  },
  "AF": {
    "calling_code": "93",
    "calling_code_all": "93",
    "code": "AF",
    "emoji": "ğŸ‡¦ğŸ‡«",
    "iso_codes": "",
    "name": "Afghanistan",
    "name_cn": "é˜¿å¯Œæ±—",
    "unicode": "U+1F1E6 U+1F1EB"
  },
  "AG": {
    "calling_code": "1268",
    "calling_code_all": "1-268",
    "code": "AG",
    "emoji": "ğŸ‡¦ğŸ‡¬",
    "iso_codes": "",
    "name": "Antigua & Barbuda",
    "name_cn": "å®‰æç“œå’Œå·´å¸ƒè¾¾",
    "unicode": "U+1F1E6 U+1F1EC"
  },
  "AI": {
    "calling_code": "1264",
    "calling_code_all": "1-264",
    "code": "AI",
    "emoji": "ğŸ‡¦ğŸ‡®",
    "iso_codes": "",
    "name": "Anguilla",
    "name_cn": "å®‰åœ­æ‹‰",
    "unicode": "U+1F1E6 U+1F1EE"
  },
  "AL": {
    "calling_code": "355",
    "calling_code_all": "355",
    "code": "AL",
    "emoji": "ğŸ‡¦ğŸ‡±",
    "iso_codes": "",
    "name": "Albania",
    "name_cn": "é˜¿å°”å·´å°¼äºš",
    "unicode": "U+1F1E6 U+1F1F1"
  },
  "AM": {
    "calling_code": "374",
    "calling_code_all": "374",
    "code": "AM",
    "emoji": "ğŸ‡¦ğŸ‡²",
    "iso_codes": "",
    "name": "Armenia",
    "name_cn": "äºšç¾å°¼äºš",
    "unicode": "U+1F1E6 U+1F1F2"
  },
  "AO": {
    "calling_code": "244",
    "calling_code_all": "244",
    "code": "AO",
    "emoji": "ğŸ‡¦ğŸ‡´",
    "iso_codes": "",
    "name": "Angola",
    "name_cn": "å®‰å“¥æ‹‰",
    "unicode": "U+1F1E6 U+1F1F4"
  },
  "AQ": {
    "calling_code": "672",
    "calling_code_all": "672",
    "code": "AQ",
    "emoji": "ğŸ‡¦ğŸ‡¶",
    "iso_codes": "",
    "name": "Antarctica",
    "name_cn": "å—ææ´²",
    "unicode": "U+1F1E6 U+1F1F6"
  },
  "AR": {
    "calling_code": "54",
    "calling_code_all": "54",
    "code": "AR",
    "emoji": "ğŸ‡¦ğŸ‡·",
    "iso_codes": "",
    "name": "Argentina",
    "name_cn": "é˜¿æ ¹å»·",
    "unicode": "U+1F1E6 U+1F1F7"
  },
  "AS": {
    "calling_code": "1684",
    "calling_code_all": "1-684",
    "code": "AS",
    "emoji": "ğŸ‡¦ğŸ‡¸",
    "iso_codes": "",
    "name": "American Samoa",
    "name_cn": "ç¾å±è¨æ‘©äºš",
    "unicode": "U+1F1E6 U+1F1F8"
  },
  "AT": {
    "calling_code": "43",
    "calling_code_all": "43",
    "code": "AT",
    "emoji": "ğŸ‡¦ğŸ‡¹",
    "iso_codes": "",
    "name": "Austria",
    "name_cn": "å¥¥åœ°åˆ©",
    "unicode": "U+1F1E6 U+1F1F9"
  },
  "AU": {
    "calling_code": "61",
    "calling_code_all": "61",
    "code": "AU",
    "emoji": "ğŸ‡¦ğŸ‡º",
    "iso_codes": "",
    "name": "Australia",
    "name_cn": "æ¾³å¤§åˆ©äºš",
    "unicode": "U+1F1E6 U+1F1FA"
  },
  "AW": {
    "calling_code": "297",
    "calling_code_all": "297",
    "code": "AW",
    "emoji": "ğŸ‡¦ğŸ‡¼",
    "iso_codes": "",
    "name": "Aruba",
    "name_cn": "é˜¿é²å·´",
    "unicode": "U+1F1E6 U+1F1FC"
  },
  "AX": {
    "calling_code": "358",
    "calling_code_all": "358",
    "code": "AX",
    "emoji": "ğŸ‡¦ğŸ‡½",
    "iso_codes": "",
    "name": "Ã…land Islands",
    "name_cn": "å¥¥å…°ç¾¤å²›",
    "unicode": "U+1F1E6 U+1F1FD"
  },
  "AZ": {
    "calling_code": "994",
    "calling_code_all": "994",
    "code": "AZ",
    "emoji": "ğŸ‡¦ğŸ‡¿",
    "iso_codes": "",
    "name": "Azerbaijan",
    "name_cn": "é˜¿å¡æ‹œç–†",
    "unicode": "U+1F1E6 U+1F1FF"
  },
  "BA": {
    "calling_code": "387",
    "calling_code_all": "387",
    "code": "BA",
    "emoji": "ğŸ‡§ğŸ‡¦",
    "iso_codes": "",
    "name": "Bosnia & Herzegovina",
    "name_cn": "æ³¢é»‘",
    "unicode": "U+1F1E7 U+1F1E6"
  },
  "BB": {
    "calling_code": "1246",
    "calling_code_all": "1-246",
    "code": "BB",
    "emoji": "ğŸ‡§ğŸ‡§",
    "iso_codes": "",
    "name": "Barbados",
    "name_cn": "å·´å·´å¤šæ–¯",
    "unicode": "U+1F1E7 U+1F1E7"
  },
  "BD": {
    "calling_code": "880",
    "calling_code_all": "880",
    "code": "BD",
    "emoji": "ğŸ‡§ğŸ‡©",
    "iso_codes": "",
    "name": "Bangladesh",
    "name_cn": "å­ŸåŠ æ‹‰å›½",
    "unicode": "U+1F1E7 U+1F1E9"
  },
  "BE": {
    "calling_code": "32",
    "calling_code_all": "32",
    "code": "BE",
    "emoji": "ğŸ‡§ğŸ‡ª",
    "iso_codes": "",
    "name": "Belgium",
    "name_cn": "æ¯”åˆ©æ—¶",
    "unicode": "U+1F1E7 U+1F1EA"
  },
  "BF": {
    "calling_code": "226",
    "calling_code_all": "226",
    "code": "BF",
    "emoji": "ğŸ‡§ğŸ‡«",
    "iso_codes": "",
    "name": "Burkina Faso",
    "name_cn": "å¸ƒåŸºçº³æ³•ç´¢",
    "unicode": "U+1F1E7 U+1F1EB"
  },
  "BG": {
    "calling_code": "359",
    "calling_code_all": "359",
    "code": "BG",
    "emoji": "ğŸ‡§ğŸ‡¬",
    "iso_codes": "",
    "name": "Bulgaria",
    "name_cn": "ä¿åŠ åˆ©äºš",
    "unicode": "U+1F1E7 U+1F1EC"
  },
  "BH": {
    "calling_code": "973",
    "calling_code_all": "973",
    "code": "BH",
    "emoji": "ğŸ‡§ğŸ‡­",
    "iso_codes": "",
    "name": "Bahrain",
    "name_cn": "å·´æ—",
    "unicode": "U+1F1E7 U+1F1ED"
  },
  "BI": {
    "calling_code": "257",
    "calling_code_all": "257",
    "code": "BI",
    "emoji": "ğŸ‡§ğŸ‡®",
    "iso_codes": "",
    "name": "Burundi",
    "name_cn": "å¸ƒéš†è¿ª",
    "unicode": "U+1F1E7 U+1F1EE"
  },
  "BJ": {
    "calling_code": "229",
    "calling_code_all": "229",
    "code": "BJ",
    "emoji": "ğŸ‡§ğŸ‡¯",
    "iso_codes": "",
    "name": "Benin",
    "name_cn": "è´å®",
    "unicode": "U+1F1E7 U+1F1EF"
  },
  "BL": {
    "calling_code": "590",
    "calling_code_all": "590",
    "code": "BL",
    "emoji": "ğŸ‡§ğŸ‡±",
    "iso_codes": "",
    "name": "St. BarthÃ©lemy",
    "name_cn": "åœ£å·´æ³°å‹’ç±³",
    "unicode": "U+1F1E7 U+1F1F1"
  },
  "BM": {
    "calling_code": "1441",
    "calling_code_all": "1-441",
    "code": "BM",
    "emoji": "ğŸ‡§ğŸ‡²",
    "iso_codes": "",
    "name": "Bermuda",
    "name_cn": "ç™¾æ…•å¤§",
    "unicode": "U+1F1E7 U+1F1F2"
  },
  "BN": {
    "calling_code": "673",
    "calling_code_all": "673",
    "code": "BN",
    "emoji": "ğŸ‡§ğŸ‡³",
    "iso_codes": "",
    "name": "Brunei",
    "name_cn": "æ–‡è±",
    "unicode": "U+1F1E7 U+1F1F3"
  },
  "BO": {
    "calling_code": "591",
    "calling_code_all": "591",
    "code": "BO",
    "emoji": "ğŸ‡§ğŸ‡´",
    "iso_codes": "",
    "name": "Bolivia",
    "name_cn": "ç»åˆ©ç»´äºš",
    "unicode": "U+1F1E7 U+1F1F4"
  },
  "BQ": {
    "calling_code": "599",
    "calling_code_all": "599",
    "code": "BQ",
    "emoji": "ğŸ‡§ğŸ‡¶",
    "iso_codes": "",
    "name": "Caribbean Netherlands",
    "name_cn": "åº“æ‹‰ç´¢",
    "unicode": "U+1F1E7 U+1F1F6"
  },
  "BR": {
    "calling_code": "55",
    "calling_code_all": "55",
    "code": "BR",
    "emoji": "ğŸ‡§ğŸ‡·",
    "iso_codes": "",
    "name": "Brazil",
    "name_cn": "å·´è¥¿",
    "unicode": "U+1F1E7 U+1F1F7"
  },
  "BS": {
    "calling_code": "1242",
    "calling_code_all": "1-242",
    "code": "BS",
    "emoji": "ğŸ‡§ğŸ‡¸",
    "iso_codes": "",
    "name": "Bahamas",
    "name_cn": "å·´å“ˆé©¬å›½",
    "unicode": "U+1F1E7 U+1F1F8"
  },
  "BT": {
    "calling_code": "975",
    "calling_code_all": "975",
    "code": "BT",
    "emoji": "ğŸ‡§ğŸ‡¹",
    "iso_codes": "",
    "name": "Bhutan",
    "name_cn": "ä¸ä¸¹",
    "unicode": "U+1F1E7 U+1F1F9"
  },
  "BV": {
    "calling_code": "55",
    "calling_code_all": "55",
    "code": "BV",
    "emoji": "ğŸ‡§ğŸ‡»",
    "iso_codes": "",
    "name": "Bouvet Island",
    "name_cn": "å¸ƒéŸ¦å²›",
    "unicode": "U+1F1E7 U+1F1FB"
  },
  "BW": {
    "calling_code": "267",
    "calling_code_all": "267",
    "code": "BW",
    "emoji": "ğŸ‡§ğŸ‡¼",
    "iso_codes": "",
    "name": "Botswana",
    "name_cn": "åšèŒ¨ç“¦çº³",
    "unicode": "U+1F1E7 U+1F1FC"
  },
  "BY": {
    "calling_code": "375",
    "calling_code_all": "375",
    "code": "BY",
    "emoji": "ğŸ‡§ğŸ‡¾",
    "iso_codes": "",
    "name": "Belarus",
    "name_cn": "ç™½ä¿„ç½—æ–¯",
    "unicode": "U+1F1E7 U+1F1FE"
  },
  "BZ": {
    "calling_code": "501",
    "calling_code_all": "501",
    "code": "BZ",
    "emoji": "ğŸ‡§ğŸ‡¿",
    "iso_codes": "",
    "name": "Belize",
    "name_cn": "ä¼¯åˆ©å…¹",
    "unicode": "U+1F1E7 U+1F1FF"
  },
  "CA": {
    "calling_code": "1",
    "calling_code_all": "1",
    "code": "CA",
    "emoji": "ğŸ‡¨ğŸ‡¦",
    "iso_codes": "",
    "name": "Canada",
    "name_cn": "åŠ æ‹¿å¤§",
    "unicode": "U+1F1E8 U+1F1E6"
  },
  "CC": {
    "calling_code": "61",
    "calling_code_all": "61",
    "code": "CC",
    "emoji": "ğŸ‡¨ğŸ‡¨",
    "iso_codes": "",
    "name": "Cocos (Keeling) Islands",
    "name_cn": "ç§‘ç§‘æ–¯ï¼ˆåŸºæ—ï¼‰ç¾¤å²›",
    "unicode": "U+1F1E8 U+1F1E8"
  },
  "CD": {
    "calling_code": "243",
    "calling_code_all": "243",
    "code": "CD",
    "emoji": "ğŸ‡¨ğŸ‡©",
    "iso_codes": "",
    "name": "Congo - Kinshasa",
    "name_cn": "åˆšæœï¼ˆé‡‘ï¼‰",
    "unicode": "U+1F1E8 U+1F1E9"
  },
  "CF": {
    "calling_code": "236",
    "calling_code_all": "236",
    "code": "CF",
    "emoji": "ğŸ‡¨ğŸ‡«",
    "iso_codes": "",
    "name": "Central African Republic",
    "name_cn": "ä¸­é",
    "unicode": "U+1F1E8 U+1F1EB"
  },
  "CG": {
    "calling_code": "242",
    "calling_code_all": "242",
    "code": "CG",
    "emoji": "ğŸ‡¨ğŸ‡¬",
    "iso_codes": "",
    "name": "Congo - Brazzaville",
    "name_cn": "åˆšæœï¼ˆå¸ƒï¼‰",
    "unicode": "U+1F1E8 U+1F1EC"
  },
  "CH": {
    "calling_code": "41",
    "calling_code_all": "41",
    "code": "CH",
    "emoji": "ğŸ‡¨ğŸ‡­",
    "iso_codes": "",
    "name": "Switzerland",
    "name_cn": "ç‘å£«",
    "unicode": "U+1F1E8 U+1F1ED"
  },
  "CI": {
    "calling_code": "225",
    "calling_code_all": "225",
    "code": "CI",
    "emoji": "ğŸ‡¨ğŸ‡®",
    "iso_codes": "",
    "name": "CÃ´te dâ€™Ivoire",
    "name_cn": "ç§‘ç‰¹è¿ªç“¦",
    "unicode": "U+1F1E8 U+1F1EE"
  },
  "CK": {
    "calling_code": "682",
    "calling_code_all": "682",
    "code": "CK",
    "emoji": "ğŸ‡¨ğŸ‡°",
    "iso_codes": "",
    "name": "Cook Islands",
    "name_cn": "åº“å…‹ç¾¤å²›",
    "unicode": "U+1F1E8 U+1F1F0"
  },
  "CL": {
    "calling_code": "56",
    "calling_code_all": "56",
    "code": "CL",
    "emoji": "ğŸ‡¨ğŸ‡±",
    "iso_codes": "",
    "name": "Chile",
    "name_cn": "æ™ºåˆ©",
    "unicode": "U+1F1E8 U+1F1F1"
  },
  "CM": {
    "calling_code": "237",
    "calling_code_all": "237",
    "code": "CM",
    "emoji": "ğŸ‡¨ğŸ‡²",
    "iso_codes": "",
    "name": "Cameroon",
    "name_cn": "å–€éº¦éš†",
    "unicode": "U+1F1E8 U+1F1F2"
  },
  "CN": {
    "calling_code": "86",
    "calling_code_all": "86",
    "code": "CN",
    "emoji": "ğŸ‡¨ğŸ‡³",
    "iso_codes": "",
    "name": "China",
    "name_cn": "ä¸­å›½",
    "unicode": "U+1F1E8 U+1F1F3"
  },
  "CO": {
    "calling_code": "57",
    "calling_code_all": "57",
    "code": "CO",
    "emoji": "ğŸ‡¨ğŸ‡´",
    "iso_codes": "",
    "name": "Colombia",
    "name_cn": "å“¥ä¼¦æ¯”äºš",
    "unicode": "U+1F1E8 U+1F1F4"
  },
  "CP": {
    "calling_code": "011",
    "calling_code_all": "011",
    "code": "CP",
    "emoji": "ğŸ‡¨ğŸ‡µ",
    "iso_codes": "",
    "name": "Clipperton Island",
    "name_cn": "å…‹åˆ©ç€é¡¿å²›",
    "unicode": "U+1F1E8 U+1F1F5"
  },
  "CR": {
    "calling_code": "506",
    "calling_code_all": "506",
    "code": "CR",
    "emoji": "ğŸ‡¨ğŸ‡·",
    "iso_codes": "",
    "name": "Costa Rica",
    "name_cn": "å“¥æ–¯è¾¾é»åŠ ",
    "unicode": "U+1F1E8 U+1F1F7"
  },
  "CU": {
    "calling_code": "53",
    "calling_code_all": "53",
    "code": "CU",
    "emoji": "ğŸ‡¨ğŸ‡º",
    "iso_codes": "",
    "name": "Cuba",
    "name_cn": "å¤å·´",
    "unicode": "U+1F1E8 U+1F1FA"
  },
  "CV": {
    "calling_code": "238",
    "calling_code_all": "238",
    "code": "CV",
    "emoji": "ğŸ‡¨ğŸ‡»",
    "iso_codes": "",
    "name": "Cape Verde",
    "name_cn": "ä½›å¾—è§’",
    "unicode": "U+1F1E8 U+1F1FB"
  },
  "CW": {
    "calling_code": "599",
    "calling_code_all": "599",
    "code": "CW",
    "emoji": "ğŸ‡¨ğŸ‡¼",
    "iso_codes": "",
    "name": "CuraÃ§ao",
    "name_cn": "åº“æ‹‰ç´¢",
    "unicode": "U+1F1E8 U+1F1FC"
  },
  "CX": {
    "calling_code": "61",
    "calling_code_all": "61",
    "code": "CX",
    "emoji": "ğŸ‡¨ğŸ‡½",
    "iso_codes": "",
    "name": "Christmas Island",
    "name_cn": "åœ£è¯å²›",
    "unicode": "U+1F1E8 U+1F1FD"
  },
  "CY": {
    "calling_code": "357",
    "calling_code_all": "357",
    "code": "CY",
    "emoji": "ğŸ‡¨ğŸ‡¾",
    "iso_codes": "",
    "name": "Cyprus",
    "name_cn": "å¡æµ¦è·¯æ–¯",
    "unicode": "U+1F1E8 U+1F1FE"
  },
  "CZ": {
    "calling_code": "420",
    "calling_code_all": "420",
    "code": "CZ",
    "emoji": "ğŸ‡¨ğŸ‡¿",
    "iso_codes": "",
    "name": "Czechia",
    "name_cn": "æ·å…‹",
    "unicode": "U+1F1E8 U+1F1FF"
  },
  "DE": {
    "calling_code": "49",
    "calling_code_all": "49",
    "code": "DE",
    "emoji": "ğŸ‡©ğŸ‡ª",
    "iso_codes": "",
    "name": "Germany",
    "name_cn": "å¾·å›½",
    "unicode": "U+1F1E9 U+1F1EA"
  },
  "DG": {
    "calling_code": "246",
    "calling_code_all": "246",
    "code": "DG",
    "emoji": "ğŸ‡©ğŸ‡¬",
    "iso_codes": "",
    "name": "Diego Garcia",
    "name_cn": "è¿ªæˆˆåŠ è¥¿äºšå²›",
    "unicode": "U+1F1E9 U+1F1EC"
  },
  "DJ": {
    "calling_code": "253",
    "calling_code_all": "253",
    "code": "DJ",
    "emoji": "ğŸ‡©ğŸ‡¯",
    "iso_codes": "",
    "name": "Djibouti",
    "name_cn": "å‰å¸ƒæ",
    "unicode": "U+1F1E9 U+1F1EF"
  },
  "DK": {
    "calling_code": "45",
    "calling_code_all": "45",
    "code": "DK",
    "emoji": "ğŸ‡©ğŸ‡°",
    "iso_codes": "",
    "name": "Denmark",
    "name_cn": "ä¸¹éº¦",
    "unicode": "U+1F1E9 U+1F1F0"
  },
  "DM": {
    "calling_code": "1767",
    "calling_code_all": "1-767",
    "code": "DM",
    "emoji": "ğŸ‡©ğŸ‡²",
    "iso_codes": "",
    "name": "Dominica",
    "name_cn": "å¤šç±³å°¼å…‹",
    "unicode": "U+1F1E9 U+1F1F2"
  },
  "DO": {
    "calling_code": "1809",
    "calling_code_all": "1-809, 1-829, 1-849",
    "code": "DO",
    "emoji": "ğŸ‡©ğŸ‡´",
    "iso_codes": "",
    "name": "Dominican Republic",
    "name_cn": "å¤šç±³å°¼åŠ ",
    "unicode": "U+1F1E9 U+1F1F4"
  },
  "DZ": {
    "calling_code": "213",
    "calling_code_all": "213",
    "code": "DZ",
    "emoji": "ğŸ‡©ğŸ‡¿",
    "iso_codes": "",
    "name": "Algeria",
    "name_cn": "é˜¿å°”åŠåˆ©äºš",
    "unicode": "U+1F1E9 U+1F1FF"
  },
  "EA": {
    "calling_code": "34",
    "calling_code_all": "34",
    "code": "EA",
    "emoji": "ğŸ‡ªğŸ‡¦",
    "iso_codes": "",
    "name": "Ceuta And Melilla",
    "name_cn": "ä¼‘å¡”å’Œæ¢…åˆ©æ‹‰",
    "unicode": "U+1F1EA U+1F1E6"
  },
  "EC": {
    "calling_code": "593",
    "calling_code_all": "593",
    "code": "EC",
    "emoji": "ğŸ‡ªğŸ‡¨",
    "iso_codes": "",
    "name": "Ecuador",
    "name_cn": "å„ç“œå¤šå°”",
    "unicode": "U+1F1EA U+1F1E8"
  },
  "EE": {
    "calling_code": "372",
    "calling_code_all": "372",
    "code": "EE",
    "emoji": "ğŸ‡ªğŸ‡ª",
    "iso_codes": "",
    "name": "Estonia",
    "name_cn": "çˆ±æ²™å°¼äºš",
    "unicode": "U+1F1EA U+1F1EA"
  },
  "EG": {
    "calling_code": "20",
    "calling_code_all": "20",
    "code": "EG",
    "emoji": "ğŸ‡ªğŸ‡¬",
    "iso_codes": "",
    "name": "Egypt",
    "name_cn": "åŸƒåŠ",
    "unicode": "U+1F1EA U+1F1EC"
  },
  "EH": {
    "calling_code": "212",
    "calling_code_all": "212",
    "code": "EH",
    "emoji": "ğŸ‡ªğŸ‡­",
    "iso_codes": "",
    "name": "Western Sahara",
    "name_cn": "è¥¿æ’’å“ˆæ‹‰",
    "unicode": "U+1F1EA U+1F1ED"
  },
  "ER": {
    "calling_code": "291",
    "calling_code_all": "291",
    "code": "ER",
    "emoji": "ğŸ‡ªğŸ‡·",
    "iso_codes": "",
    "name": "Eritrea",
    "name_cn": "å„ç«‹ç‰¹é‡Œäºš",
    "unicode": "U+1F1EA U+1F1F7"
  },
  "ES": {
    "calling_code": "34",
    "calling_code_all": "34",
    "code": "ES",
    "emoji": "ğŸ‡ªğŸ‡¸",
    "iso_codes": "",
    "name": "Spain",
    "name_cn": "è¥¿ç­ç‰™",
    "unicode": "U+1F1EA U+1F1F8"
  },
  "ET": {
    "calling_code": "251",
    "calling_code_all": "251",
    "code": "ET",
    "emoji": "ğŸ‡ªğŸ‡¹",
    "iso_codes": "",
    "name": "Ethiopia",
    "name_cn": "åŸƒå¡ä¿„æ¯”äºš",
    "unicode": "U+1F1EA U+1F1F9"
  },
  "FI": {
    "calling_code": "358",
    "calling_code_all": "358",
    "code": "FI",
    "emoji": "ğŸ‡«ğŸ‡®",
    "iso_codes": "",
    "name": "Finland",
    "name_cn": "èŠ¬å…°",
    "unicode": "U+1F1EB U+1F1EE"
  },
  "FJ": {
    "calling_code": "679",
    "calling_code_all": "679",
    "code": "FJ",
    "emoji": "ğŸ‡«ğŸ‡¯",
    "iso_codes": "",
    "name": "Fiji",
    "name_cn": "æ–æµ",
    "unicode": "U+1F1EB U+1F1EF"
  },
  "FK": {
    "calling_code": "500",
    "calling_code_all": "500",
    "code": "FK",
    "emoji": "ğŸ‡«ğŸ‡°",
    "iso_codes": "",
    "name": "Falkland Islands",
    "name_cn": "ç¦å…‹å…°ç¾¤å²›ï¼ˆé©¬å°”ç»´çº³æ–¯ï¼‰",
    "unicode": "U+1F1EB U+1F1F0"
  },
  "FM": {
    "calling_code": "691",
    "calling_code_all": "691",
    "code": "FM",
    "emoji": "ğŸ‡«ğŸ‡²",
    "iso_codes": "",
    "name": "Micronesia",
    "name_cn": "å¯†å…‹ç½—å°¼è¥¿äºšè”é‚¦",
    "unicode": "U+1F1EB U+1F1F2"
  },
  "FO": {
    "calling_code": "298",
    "calling_code_all": "298",
    "code": "FO",
    "emoji": "ğŸ‡«ğŸ‡´",
    "iso_codes": "",
    "name": "Faroe Islands",
    "name_cn": "æ³•ç½—ç¾¤å²›",
    "unicode": "U+1F1EB U+1F1F4"
  },
  "FR": {
    "calling_code": "33",
    "calling_code_all": "33",
    "code": "FR",
    "emoji": "ğŸ‡«ğŸ‡·",
    "iso_codes": "",
    "name": "France",
    "name_cn": "æ³•å›½",
    "unicode": "U+1F1EB U+1F1F7"
  },
  "GA": {
    "calling_code": "241",
    "calling_code_all": "241",
    "code": "GA",
    "emoji": "ğŸ‡¬ğŸ‡¦",
    "iso_codes": "",
    "name": "Gabon",
    "name_cn": "åŠ è“¬",
    "unicode": "U+1F1EC U+1F1E6"
  },
  "GB": {
    "calling_code": "44",
    "calling_code_all": "44",
    "code": "GB",
    "emoji": "ğŸ‡¬ğŸ‡§",
    "iso_codes": "",
    "name": "United Kingdom",
    "name_cn": "ç¾å›½",
    "unicode": "U+1F1EC U+1F1E7"
  },
  "GD": {
    "calling_code": "1473",
    "calling_code_all": "1-473",
    "code": "GD",
    "emoji": "ğŸ‡¬ğŸ‡©",
    "iso_codes": "",
    "name": "Grenada",
    "name_cn": "æ ¼æ—çº³è¾¾",
    "unicode": "U+1F1EC U+1F1E9"
  },
  "GE": {
    "calling_code": "995",
    "calling_code_all": "995",
    "code": "GE",
    "emoji": "ğŸ‡¬ğŸ‡ª",
    "iso_codes": "",
    "name": "Georgia",
    "name_cn": "æ ¼é²å‰äºš",
    "unicode": "U+1F1EC U+1F1EA"
  },
  "GF": {
    "calling_code": "594",
    "calling_code_all": "594",
    "code": "GF",
    "emoji": "ğŸ‡¬ğŸ‡«",
    "iso_codes": "",
    "name": "French Guiana",
    "name_cn": "æ³•å±æ³¢åˆ©å°¼è¥¿äºš",
    "unicode": "U+1F1EC U+1F1EB"
  },
  "GG": {
    "calling_code": "44",
    "calling_code_all": "44-1481",
    "code": "GG",
    "emoji": "ğŸ‡¬ğŸ‡¬",
    "iso_codes": "",
    "name": "Guernsey",
    "name_cn": "æ ¹è¥¿å²›",
    "unicode": "U+1F1EC U+1F1EC"
  },
  "GH": {
    "calling_code": "233",
    "calling_code_all": "233",
    "code": "GH",
    "emoji": "ğŸ‡¬ğŸ‡­",
    "iso_codes": "",
    "name": "Ghana",
    "name_cn": "åŠ çº³",
    "unicode": "U+1F1EC U+1F1ED"
  },
  "GI": {
    "calling_code": "350",
    "calling_code_all": "350",
    "code": "GI",
    "emoji": "ğŸ‡¬ğŸ‡®",
    "iso_codes": "",
    "name": "Gibraltar",
    "name_cn": "ç›´å¸ƒç½—é™€",
    "unicode": "U+1F1EC U+1F1EE"
  },
  "GL": {
    "calling_code": "299",
    "calling_code_all": "299",
    "code": "GL",
    "emoji": "ğŸ‡¬ğŸ‡±",
    "iso_codes": "",
    "name": "Greenland",
    "name_cn": "æ ¼é™µå…°",
    "unicode": "U+1F1EC U+1F1F1"
  },
  "GM": {
    "calling_code": "220",
    "calling_code_all": "220",
    "code": "GM",
    "emoji": "ğŸ‡¬ğŸ‡²",
    "iso_codes": "",
    "name": "Gambia",
    "name_cn": "å†ˆæ¯”äºš",
    "unicode": "U+1F1EC U+1F1F2"
  },
  "GN": {
    "calling_code": "224",
    "calling_code_all": "224",
    "code": "GN",
    "emoji": "ğŸ‡¬ğŸ‡³",
    "iso_codes": "",
    "name": "Guinea",
    "name_cn": "å‡ å†…äºš",
    "unicode": "U+1F1EC U+1F1F3"
  },
  "GP": {
    "calling_code": "590",
    "calling_code_all": "590",
    "code": "GP",
    "emoji": "ğŸ‡¬ğŸ‡µ",
    "iso_codes": "",
    "name": "Guadeloupe",
    "name_cn": "ç“œå¾·ç½—æ™®",
    "unicode": "U+1F1EC U+1F1F5"
  },
  "GQ": {
    "calling_code": "240",
    "calling_code_all": "240",
    "code": "GQ",
    "emoji": "ğŸ‡¬ğŸ‡¶",
    "iso_codes": "",
    "name": "Equatorial Guinea",
    "name_cn": "èµ¤é“å‡ å†…äºš",
    "unicode": "U+1F1EC U+1F1F6"
  },
  "GR": {
    "calling_code": "30",
    "calling_code_all": "30",
    "code": "GR",
    "emoji": "ğŸ‡¬ğŸ‡·",
    "iso_codes": "",
    "name": "Greece",
    "name_cn": "å¸Œè…Š",
    "unicode": "U+1F1EC U+1F1F7"
  },
  "GS": {
    "calling_code": "500",
    "calling_code_all": "500",
    "code": "GS",
    "emoji": "ğŸ‡¬ğŸ‡¸",
    "iso_codes": "",
    "name": "South Georgia And South Sandwich Islands",
    "name_cn": "å—é",
    "unicode": "U+1F1EC U+1F1F8"
  },
  "GT": {
    "calling_code": "502",
    "calling_code_all": "502",
    "code": "GT",
    "emoji": "ğŸ‡¬ğŸ‡¹",
    "iso_codes": "",
    "name": "Guatemala",
    "name_cn": "å±åœ°é©¬æ‹‰",
    "unicode": "U+1F1EC U+1F1F9"
  },
  "GU": {
    "calling_code": "1671",
    "calling_code_all": "1-671",
    "code": "GU",
    "emoji": "ğŸ‡¬ğŸ‡º",
    "iso_codes": "",
    "name": "Guam",
    "name_cn": "å…³å²›",
    "unicode": "U+1F1EC U+1F1FA"
  },
  "GW": {
    "calling_code": "245",
    "calling_code_all": "245",
    "code": "GW",
    "emoji": "ğŸ‡¬ğŸ‡¼",
    "iso_codes": "",
    "name": "Guinea-Bissau",
    "name_cn": "å‡ å†…äºšæ¯”ç»",
    "unicode": "U+1F1EC U+1F1FC"
  },
  "GY": {
    "calling_code": "592",
    "calling_code_all": "592",
    "code": "GY",
    "emoji": "ğŸ‡¬ğŸ‡¾",
    "iso_codes": "",
    "name": "Guyana",
    "name_cn": "åœ­äºšé‚£",
    "unicode": "U+1F1EC U+1F1FE"
  },
  "HK": {
    "calling_code": "852",
    "calling_code_all": "852",
    "code": "HK",
    "emoji": "ğŸ‡­ğŸ‡°",
    "iso_codes": "",
    "name": "Hong Kong SAR China",
    "name_cn": "é¦™æ¸¯",
    "unicode": "U+1F1ED U+1F1F0"
  },
  "HM": {
    "calling_code": "672",
    "calling_code_all": "672",
    "code": "HM",
    "emoji": "ğŸ‡­ğŸ‡²",
    "iso_codes": "",
    "name": "Heard And McDonald Islands",
    "name_cn": "èµ«å¾·å²›å’Œéº¦å…‹å”çº³ç¾¤å²›",
    "unicode": "U+1F1ED U+1F1F2"
  },
  "HN": {
    "calling_code": "504",
    "calling_code_all": "504",
    "code": "HN",
    "emoji": "ğŸ‡­ğŸ‡³",
    "iso_codes": "",
    "name": "Honduras",
    "name_cn": "æ´ªéƒ½æ‹‰æ–¯",
    "unicode": "U+1F1ED U+1F1F3"
  },
  "HR": {
    "calling_code": "385",
    "calling_code_all": "385",
    "code": "HR",
    "emoji": "ğŸ‡­ğŸ‡·",
    "iso_codes": "",
    "name": "Croatia",
    "name_cn": "å…‹ç½—åœ°äºš",
    "unicode": "U+1F1ED U+1F1F7"
  },
  "HT": {
    "calling_code": "509",
    "calling_code_all": "509",
    "code": "HT",
    "emoji": "ğŸ‡­ğŸ‡¹",
    "iso_codes": "",
    "name": "Haiti",
    "name_cn": "æµ·åœ°",
    "unicode": "U+1F1ED U+1F1F9"
  },
  "HU": {
    "calling_code": "36",
    "calling_code_all": "36",
    "code": "HU",
    "emoji": "ğŸ‡­ğŸ‡º",
    "iso_codes": "",
    "name": "Hungary",
    "name_cn": "åŒˆç‰™åˆ©",
    "unicode": "U+1F1ED U+1F1FA"
  },
  "IC": {
    "calling_code": "34",
    "calling_code_all": "34",
    "code": "IC",
    "emoji": "ğŸ‡®ğŸ‡¨",
    "iso_codes": "",
    "name": "Canary Islands",
    "name_cn": "åŠ é‚£åˆ©ç¾¤å²›",
    "unicode": "U+1F1EE U+1F1E8"
  },
  "ID": {
    "calling_code": "62",
    "calling_code_all": "62",
    "code": "ID",
    "emoji": "ğŸ‡®ğŸ‡©",
    "iso_codes": "",
    "name": "Indonesia",
    "name_cn": "å°åº¦å°¼è¥¿äºš",
    "unicode": "U+1F1EE U+1F1E9"
  },
  "IE": {
    "calling_code": "353",
    "calling_code_all": "353",
    "code": "IE",
    "emoji": "ğŸ‡®ğŸ‡ª",
    "iso_codes": "",
    "name": "Ireland",
    "name_cn": "çˆ±å°”å…°",
    "unicode": "U+1F1EE U+1F1EA"
  },
  "IL": {
    "calling_code": "972",
    "calling_code_all": "972",
    "code": "IL",
    "emoji": "ğŸ‡®ğŸ‡±",
    "iso_codes": "",
    "name": "Israel",
    "name_cn": "ä»¥è‰²åˆ—",
    "unicode": "U+1F1EE U+1F1F1"
  },
  "IM": {
    "calling_code": "44",
    "calling_code_all": "44-1624",
    "code": "IM",
    "emoji": "ğŸ‡®ğŸ‡²",
    "iso_codes": "",
    "name": "Isle of Man",
    "name_cn": "é©¬æ©å²›",
    "unicode": "U+1F1EE U+1F1F2"
  },
  "IN": {
    "calling_code": "91",
    "calling_code_all": "91",
    "code": "IN",
    "emoji": "ğŸ‡®ğŸ‡³",
    "iso_codes": "",
    "name": "India",
    "name_cn": "å°åº¦",
    "unicode": "U+1F1EE U+1F1F3"
  },
  "IO": {
    "calling_code": "246",
    "calling_code_all": "246",
    "code": "IO",
    "emoji": "ğŸ‡®ğŸ‡´",
    "iso_codes": "",
    "name": "British Indian Ocean Territory",
    "name_cn": "è‹±å±ç»´å°”äº¬ç¾¤å²›",
    "unicode": "U+1F1EE U+1F1F4"
  },
  "IQ": {
    "calling_code": "964",
    "calling_code_all": "964",
    "code": "IQ",
    "emoji": "ğŸ‡®ğŸ‡¶",
    "iso_codes": "",
    "name": "Iraq",
    "name_cn": "ä¼Šæ‹‰å…‹",
    "unicode": "U+1F1EE U+1F1F6"
  },
  "IR": {
    "calling_code": "98",
    "calling_code_all": "98",
    "code": "IR",
    "emoji": "ğŸ‡®ğŸ‡·",
    "iso_codes": "",
    "name": "Iran",
    "name_cn": "ä¼Šæœ—",
    "unicode": "U+1F1EE U+1F1F7"
  },
  "IS": {
    "calling_code": "354",
    "calling_code_all": "354",
    "code": "IS",
    "emoji": "ğŸ‡®ğŸ‡¸",
    "iso_codes": "",
    "name": "Iceland",
    "name_cn": "å†°å²›",
    "unicode": "U+1F1EE U+1F1F8"
  },
  "IT": {
    "calling_code": "39",
    "calling_code_all": "39",
    "code": "IT",
    "emoji": "ğŸ‡®ğŸ‡¹",
    "iso_codes": "",
    "name": "Italy",
    "name_cn": "æ„å¤§åˆ©",
    "unicode": "U+1F1EE U+1F1F9"
  },
  "JE": {
    "calling_code": "44",
    "calling_code_all": "44-1534",
    "code": "JE",
    "emoji": "ğŸ‡¯ğŸ‡ª",
    "iso_codes": "",
    "name": "Jersey",
    "name_cn": "æ³½è¥¿å²›",
    "unicode": "U+1F1EF U+1F1EA"
  },
  "JM": {
    "calling_code": "1876",
    "calling_code_all": "1-876",
    "code": "JM",
    "emoji": "ğŸ‡¯ğŸ‡²",
    "iso_codes": "",
    "name": "Jamaica",
    "name_cn": "ç‰™ä¹°åŠ ",
    "unicode": "U+1F1EF U+1F1F2"
  },
  "JO": {
    "calling_code": "962",
    "calling_code_all": "962",
    "code": "JO",
    "emoji": "ğŸ‡¯ğŸ‡´",
    "iso_codes": "",
    "name": "Jordan",
    "name_cn": "çº¦æ—¦",
    "unicode": "U+1F1EF U+1F1F4"
  },
  "JP": {
    "calling_code": "81",
    "calling_code_all": "81",
    "code": "JP",
    "emoji": "ğŸ‡¯ğŸ‡µ",
    "iso_codes": "",
    "name": "Japan",
    "name_cn": "æ—¥æœ¬",
    "unicode": "U+1F1EF U+1F1F5"
  },
  "KE": {
    "calling_code": "254",
    "calling_code_all": "254",
    "code": "KE",
    "emoji": "ğŸ‡°ğŸ‡ª",
    "iso_codes": "",
    "name": "Kenya",
    "name_cn": "è‚¯å°¼äºš",
    "unicode": "U+1F1F0 U+1F1EA"
  },
  "KG": {
    "calling_code": "996",
    "calling_code_all": "996",
    "code": "KG",
    "emoji": "ğŸ‡°ğŸ‡¬",
    "iso_codes": "",
    "name": "Kyrgyzstan",
    "name_cn": "å‰å°”å‰æ–¯æ–¯å¦",
    "unicode": "U+1F1F0 U+1F1EC"
  },
  "KH": {
    "calling_code": "855",
    "calling_code_all": "855",
    "code": "KH",
    "emoji": "ğŸ‡°ğŸ‡­",
    "iso_codes": "",
    "name": "Cambodia",
    "name_cn": "æŸ¬åŸ”å¯¨",
    "unicode": "U+1F1F0 U+1F1ED"
  },
  "KI": {
    "calling_code": "686",
    "calling_code_all": "686",
    "code": "KI",
    "emoji": "ğŸ‡°ğŸ‡®",
    "iso_codes": "",
    "name": "Kiribati",
    "name_cn": "åŸºé‡Œå·´æ–¯",
    "unicode": "U+1F1F0 U+1F1EE"
  },
  "KM": {
    "calling_code": "269",
    "calling_code_all": "269",
    "code": "KM",
    "emoji": "ğŸ‡°ğŸ‡²",
    "iso_codes": "",
    "name": "Comoros",
    "name_cn": "ç§‘æ‘©ç½—",
    "unicode": "U+1F1F0 U+1F1F2"
  },
  "KN": {
    "calling_code": "1869",
    "calling_code_all": "1-869",
    "code": "KN",
    "emoji": "ğŸ‡°ğŸ‡³",
    "iso_codes": "",
    "name": "St. Kitts & Nevis",
    "name_cn": "åœ£åŸºèŒ¨å’Œå°¼ç»´æ–¯",
    "unicode": "U+1F1F0 U+1F1F3"
  },
  "KP": {
    "calling_code": "850",
    "calling_code_all": "850",
    "code": "KP",
    "emoji": "ğŸ‡°ğŸ‡µ",
    "iso_codes": "",
    "name": "North Korea",
    "name_cn": "æœé²œ",
    "unicode": "U+1F1F0 U+1F1F5"
  },
  "KR": {
    "calling_code": "82",
    "calling_code_all": "82",
    "code": "KR",
    "emoji": "ğŸ‡°ğŸ‡·",
    "iso_codes": "",
    "name": "South Korea",
    "name_cn": "å—é",
    "unicode": "U+1F1F0 U+1F1F7"
  },
  "KW": {
    "calling_code": "965",
    "calling_code_all": "965",
    "code": "KW",
    "emoji": "ğŸ‡°ğŸ‡¼",
    "iso_codes": "",
    "name": "Kuwait",
    "name_cn": "ç§‘å¨ç‰¹",
    "unicode": "U+1F1F0 U+1F1FC"
  },
  "KY": {
    "calling_code": "1345",
    "calling_code_all": "1-345",
    "code": "KY",
    "emoji": "ğŸ‡°ğŸ‡¾",
    "iso_codes": "",
    "name": "Cayman Islands",
    "name_cn": "å¼€æ›¼ç¾¤å²›",
    "unicode": "U+1F1F0 U+1F1FE"
  },
  "KZ": {
    "calling_code": "7",
    "calling_code_all": "7",
    "code": "KZ",
    "emoji": "ğŸ‡°ğŸ‡¿",
    "iso_codes": "",
    "name": "Kazakhstan",
    "name_cn": "å“ˆè¨å…‹æ–¯å¦",
    "unicode": "U+1F1F0 U+1F1FF"
  },
  "LA": {
    "calling_code": "856",
    "calling_code_all": "856",
    "code": "LA",
    "emoji": "ğŸ‡±ğŸ‡¦",
    "iso_codes": "",
    "name": "Laos",
    "name_cn": "è€æŒ",
    "unicode": "U+1F1F1 U+1F1E6"
  },
  "LB": {
    "calling_code": "961",
    "calling_code_all": "961",
    "code": "LB",
    "emoji": "ğŸ‡±ğŸ‡§",
    "iso_codes": "",
    "name": "Lebanon",
    "name_cn": "é»å·´å«©",
    "unicode": "U+1F1F1 U+1F1E7"
  },
  "LC": {
    "calling_code": "1758",
    "calling_code_all": "1-758",
    "code": "LC",
    "emoji": "ğŸ‡±ğŸ‡¨",
    "iso_codes": "",
    "name": "St. Lucia",
    "name_cn": "åœ£å¢è¥¿äºš",
    "unicode": "U+1F1F1 U+1F1E8"
  },
  "LI": {
    "calling_code": "423",
    "calling_code_all": "423",
    "code": "LI",
    "emoji": "ğŸ‡±ğŸ‡®",
    "iso_codes": "",
    "name": "Liechtenstein",
    "name_cn": "åˆ—æ”¯æ•¦å£«ç™»",
    "unicode": "U+1F1F1 U+1F1EE"
  },
  "LK": {
    "calling_code": "94",
    "calling_code_all": "94",
    "code": "LK",
    "emoji": "ğŸ‡±ğŸ‡°",
    "iso_codes": "",
    "name": "Sri Lanka",
    "name_cn": "æ–¯é‡Œå…°å¡",
    "unicode": "U+1F1F1 U+1F1F0"
  },
  "LR": {
    "calling_code": "231",
    "calling_code_all": "231",
    "code": "LR",
    "emoji": "ğŸ‡±ğŸ‡·",
    "iso_codes": "",
    "name": "Liberia",
    "name_cn": "åˆ©æ¯”é‡Œäºš",
    "unicode": "U+1F1F1 U+1F1F7"
  },
  "LS": {
    "calling_code": "266",
    "calling_code_all": "266",
    "code": "LS",
    "emoji": "ğŸ‡±ğŸ‡¸",
    "iso_codes": "",
    "name": "Lesotho",
    "name_cn": "è±ç´¢æ‰˜",
    "unicode": "U+1F1F1 U+1F1F8"
  },
  "LT": {
    "calling_code": "370",
    "calling_code_all": "370",
    "code": "LT",
    "emoji": "ğŸ‡±ğŸ‡¹",
    "iso_codes": "",
    "name": "Lithuania",
    "name_cn": "ç«‹é™¶å®›",
    "unicode": "U+1F1F1 U+1F1F9"
  },
  "LU": {
    "calling_code": "352",
    "calling_code_all": "352",
    "code": "LU",
    "emoji": "ğŸ‡±ğŸ‡º",
    "iso_codes": "",
    "name": "Luxembourg",
    "name_cn": "å¢æ£®å ¡",
    "unicode": "U+1F1F1 U+1F1FA"
  },
  "LV": {
    "calling_code": "371",
    "calling_code_all": "371",
    "code": "LV",
    "emoji": "ğŸ‡±ğŸ‡»",
    "iso_codes": "",
    "name": "Latvia",
    "name_cn": "æ‹‰è„±ç»´äºš",
    "unicode": "U+1F1F1 U+1F1FB"
  },
  "LY": {
    "calling_code": "218",
    "calling_code_all": "218",
    "code": "LY",
    "emoji": "ğŸ‡±ğŸ‡¾",
    "iso_codes": "",
    "name": "Libya",
    "name_cn": "åˆ©æ¯”äºš",
    "unicode": "U+1F1F1 U+1F1FE"
  },
  "MA": {
    "calling_code": "212",
    "calling_code_all": "212",
    "code": "MA",
    "emoji": "ğŸ‡²ğŸ‡¦",
    "iso_codes": "",
    "name": "Morocco",
    "name_cn": "æ‘©æ´›å“¥",
    "unicode": "U+1F1F2 U+1F1E6"
  },
  "MC": {
    "calling_code": "377",
    "calling_code_all": "377",
    "code": "MC",
    "emoji": "ğŸ‡²ğŸ‡¨",
    "iso_codes": "",
    "name": "Monaco",
    "name_cn": "æ‘©çº³å“¥",
    "unicode": "U+1F1F2 U+1F1E8"
  },
  "MD": {
    "calling_code": "373",
    "calling_code_all": "373",
    "code": "MD",
    "emoji": "ğŸ‡²ğŸ‡©",
    "iso_codes": "",
    "name": "Moldova",
    "name_cn": "æ‘©å°”å¤šç“¦",
    "unicode": "U+1F1F2 U+1F1E9"
  },
  "ME": {
    "calling_code": "382",
    "calling_code_all": "382",
    "code": "ME",
    "emoji": "ğŸ‡²ğŸ‡ª",
    "iso_codes": "",
    "name": "Montenegro",
    "name_cn": "é»‘å±±",
    "unicode": "U+1F1F2 U+1F1EA"
  },
  "MF": {
    "calling_code": "590",
    "calling_code_all": "590",
    "code": "MF",
    "emoji": "ğŸ‡²ğŸ‡«",
    "iso_codes": "",
    "name": "St. Martin",
    "name_cn": "åœ£é©¬ä¸",
    "unicode": "U+1F1F2 U+1F1EB"
  },
  "MG": {
    "calling_code": "261",
    "calling_code_all": "261",
    "code": "MG",
    "emoji": "ğŸ‡²ğŸ‡¬",
    "iso_codes": "",
    "name": "Madagascar",
    "name_cn": "é©¬è¾¾åŠ æ–¯åŠ ",
    "unicode": "U+1F1F2 U+1F1EC"
  },
  "MH": {
    "calling_code": "692",
    "calling_code_all": "692",
    "code": "MH",
    "emoji": "ğŸ‡²ğŸ‡­",
    "iso_codes": "",
    "name": "Marshall Islands",
    "name_cn": "é©¬ç»å°”ç¾¤å²›",
    "unicode": "U+1F1F2 U+1F1ED"
  },
  "MK": {
    "calling_code": "389",
    "calling_code_all": "389",
    "code": "MK",
    "emoji": "ğŸ‡²ğŸ‡°",
    "iso_codes": "",
    "name": "Macedonia",
    "name_cn": "åŒ—é©¬å…¶é¡¿å…±å’Œå›½",
    "unicode": "U+1F1F2 U+1F1F0"
  },
  "ML": {
    "calling_code": "223",
    "calling_code_all": "223",
    "code": "ML",
    "emoji": "ğŸ‡²ğŸ‡±",
    "iso_codes": "",
    "name": "Mali",
    "name_cn": "é©¬é‡Œ",
    "unicode": "U+1F1F2 U+1F1F1"
  },
  "MM": {
    "calling_code": "95",
    "calling_code_all": "95",
    "code": "MM",
    "emoji": "ğŸ‡²ğŸ‡²",
    "iso_codes": "",
    "name": "Myanmar (Burma)",
    "name_cn": "ç¼…ç”¸",
    "unicode": "U+1F1F2 U+1F1F2"
  },
  "MN": {
    "calling_code": "976",
    "calling_code_all": "976",
    "code": "MN",
    "emoji": "ğŸ‡²ğŸ‡³",
    "iso_codes": "",
    "name": "Mongolia",
    "name_cn": "è’™å¤",
    "unicode": "U+1F1F2 U+1F1F3"
  },
  "MO": {
    "calling_code": "853",
    "calling_code_all": "853",
    "code": "MO",
    "emoji": "ğŸ‡²ğŸ‡´",
    "iso_codes": "",
    "name": "Macau SAR China",
    "name_cn": "æ¾³é—¨",
    "unicode": "U+1F1F2 U+1F1F4"
  },
  "MP": {
    "calling_code": "1670",
    "calling_code_all": "1-670",
    "code": "MP",
    "emoji": "ğŸ‡²ğŸ‡µ",
    "iso_codes": "",
    "name": "Northern Mariana Islands",
    "name_cn": "åŒ—é©¬é‡Œäºšçº³",
    "unicode": "U+1F1F2 U+1F1F5"
  },
  "MQ": {
    "calling_code": "596",
    "calling_code_all": "596",
    "code": "MQ",
    "emoji": "ğŸ‡²ğŸ‡¶",
    "iso_codes": "",
    "name": "Martinique",
    "name_cn": "é©¬æå°¼å…‹",
    "unicode": "U+1F1F2 U+1F1F6"
  },
  "MR": {
    "calling_code": "222",
    "calling_code_all": "222",
    "code": "MR",
    "emoji": "ğŸ‡²ğŸ‡·",
    "iso_codes": "",
    "name": "Mauritania",
    "name_cn": "æ¯›é‡Œå¡”å°¼äºš",
    "unicode": "U+1F1F2 U+1F1F7"
  },
  "MS": {
    "calling_code": "1664",
    "calling_code_all": "1-664",
    "code": "MS",
    "emoji": "ğŸ‡²ğŸ‡¸",
    "iso_codes": "",
    "name": "Montserrat",
    "name_cn": "è’™ç‰¹å¡æ‹‰ç‰¹",
    "unicode": "U+1F1F2 U+1F1F8"
  },
  "MT": {
    "calling_code": "356",
    "calling_code_all": "356",
    "code": "MT",
    "emoji": "ğŸ‡²ğŸ‡¹",
    "iso_codes": "",
    "name": "Malta",
    "name_cn": "é©¬è€³ä»–",
    "unicode": "U+1F1F2 U+1F1F9"
  },
  "MU": {
    "calling_code": "230",
    "calling_code_all": "230",
    "code": "MU",
    "emoji": "ğŸ‡²ğŸ‡º",
    "iso_codes": "",
    "name": "Mauritius",
    "name_cn": "æ¯›é‡Œæ±‚æ–¯",
    "unicode": "U+1F1F2 U+1F1FA"
  },
  "MV": {
    "calling_code": "960",
    "calling_code_all": "960",
    "code": "MV",
    "emoji": "ğŸ‡²ğŸ‡»",
    "iso_codes": "",
    "name": "Maldives",
    "name_cn": "é©¬å°”ä»£å¤«",
    "unicode": "U+1F1F2 U+1F1FB"
  },
  "MW": {
    "calling_code": "265",
    "calling_code_all": "265",
    "code": "MW",
    "emoji": "ğŸ‡²ğŸ‡¼",
    "iso_codes": "",
    "name": "Malawi",
    "name_cn": "é©¬æ‹‰ç»´",
    "unicode": "U+1F1F2 U+1F1FC"
  },
  "MX": {
    "calling_code": "52",
    "calling_code_all": "52",
    "code": "MX",
    "emoji": "ğŸ‡²ğŸ‡½",
    "iso_codes": "",
    "name": "Mexico",
    "name_cn": "å¢¨è¥¿å“¥",
    "unicode": "U+1F1F2 U+1F1FD"
  },
  "MY": {
    "calling_code": "60",
    "calling_code_all": "60",
    "code": "MY",
    "emoji": "ğŸ‡²ğŸ‡¾",
    "iso_codes": "",
    "name": "Malaysia",
    "name_cn": "é©¬æ¥è¥¿äºš",
    "unicode": "U+1F1F2 U+1F1FE"
  },
  "MZ": {
    "calling_code": "258",
    "calling_code_all": "258",
    "code": "MZ",
    "emoji": "ğŸ‡²ğŸ‡¿",
    "iso_codes": "",
    "name": "Mozambique",
    "name_cn": "è«æ¡‘æ¯”å…‹",
    "unicode": "U+1F1F2 U+1F1FF"
  },
  "NA": {
    "calling_code": "264",
    "calling_code_all": "264",
    "code": "NA",
    "emoji": "ğŸ‡³ğŸ‡¦",
    "iso_codes": "",
    "name": "Namibia",
    "name_cn": "çº³ç±³å°¼äºš",
    "unicode": "U+1F1F3 U+1F1E6"
  },
  "NC": {
    "calling_code": "687",
    "calling_code_all": "687",
    "code": "NC",
    "emoji": "ğŸ‡³ğŸ‡¨",
    "iso_codes": "",
    "name": "New Caledonia",
    "name_cn": "æ–°è¥¿å…°",
    "unicode": "U+1F1F3 U+1F1E8"
  },
  "NE": {
    "calling_code": "227",
    "calling_code_all": "227",
    "code": "NE",
    "emoji": "ğŸ‡³ğŸ‡ª",
    "iso_codes": "",
    "name": "Niger",
    "name_cn": "å°¼æ—¥å°”",
    "unicode": "U+1F1F3 U+1F1EA"
  },
  "NF": {
    "calling_code": "672",
    "calling_code_all": "672",
    "code": "NF",
    "emoji": "ğŸ‡³ğŸ‡«",
    "iso_codes": "",
    "name": "Norfolk Island",
    "name_cn": "è¯ºç¦å…‹å²›",
    "unicode": "U+1F1F3 U+1F1EB"
  },
  "NG": {
    "calling_code": "234",
    "calling_code_all": "234",
    "code": "NG",
    "emoji": "ğŸ‡³ğŸ‡¬",
    "iso_codes": "",
    "name": "Nigeria",
    "name_cn": "å°¼æ—¥åˆ©äºš",
    "unicode": "U+1F1F3 U+1F1EC"
  },
  "NI": {
    "calling_code": "505",
    "calling_code_all": "505",
    "code": "NI",
    "emoji": "ğŸ‡³ğŸ‡®",
    "iso_codes": "",
    "name": "Nicaragua",
    "name_cn": "å°¼åŠ æ‹‰ç“œ",
    "unicode": "U+1F1F3 U+1F1EE"
  },
  "NL": {
    "calling_code": "31",
    "calling_code_all": "31",
    "code": "NL",
    "emoji": "ğŸ‡³ğŸ‡±",
    "iso_codes": "",
    "name": "Netherlands",
    "name_cn": "è·å±å®‰çš„åˆ—æ–¯",
    "unicode": "U+1F1F3 U+1F1F1"
  },
  "NO": {
    "calling_code": "47",
    "calling_code_all": "47",
    "code": "NO",
    "emoji": "ğŸ‡³ğŸ‡´",
    "iso_codes": "",
    "name": "Norway",
    "name_cn": "æŒªå¨",
    "unicode": "U+1F1F3 U+1F1F4"
  },
  "NP": {
    "calling_code": "977",
    "calling_code_all": "977",
    "code": "NP",
    "emoji": "ğŸ‡³ğŸ‡µ",
    "iso_codes": "",
    "name": "Nepal",
    "name_cn": "å°¼æ³Šå°”",
    "unicode": "U+1F1F3 U+1F1F5"
  },
  "NR": {
    "calling_code": "674",
    "calling_code_all": "674",
    "code": "NR",
    "emoji": "ğŸ‡³ğŸ‡·",
    "iso_codes": "",
    "name": "Nauru",
    "name_cn": "ç‘™é²",
    "unicode": "U+1F1F3 U+1F1F7"
  },
  "NU": {
    "calling_code": "683",
    "calling_code_all": "683",
    "code": "NU",
    "emoji": "ğŸ‡³ğŸ‡º",
    "iso_codes": "",
    "name": "Niue",
    "name_cn": "çº½åŸƒ",
    "unicode": "U+1F1F3 U+1F1FA"
  },
  "NZ": {
    "calling_code": "64",
    "calling_code_all": "64",
    "code": "NZ",
    "emoji": "ğŸ‡³ğŸ‡¿",
    "iso_codes": "",
    "name": "New Zealand",
    "name_cn": "æ–°è¥¿å…°",
    "unicode": "U+1F1F3 U+1F1FF"
  },
  "OM": {
    "calling_code": "968",
    "calling_code_all": "968",
    "code": "OM",
    "emoji": "ğŸ‡´ğŸ‡²",
    "iso_codes": "",
    "name": "Oman",
    "name_cn": "é˜¿æ›¼",
    "unicode": "U+1F1F4 U+1F1F2"
  },
  "PA": {
    "calling_code": "507",
    "calling_code_all": "507",
    "code": "PA",
    "emoji": "ğŸ‡µğŸ‡¦",
    "iso_codes": "",
    "name": "Panama",
    "name_cn": "å·´æ‹¿é©¬",
    "unicode": "U+1F1F5 U+1F1E6"
  },
  "PE": {
    "calling_code": "51",
    "calling_code_all": "51",
    "code": "PE",
    "emoji": "ğŸ‡µğŸ‡ª",
    "iso_codes": "",
    "name": "Peru",
    "name_cn": "ç§˜é²",
    "unicode": "U+1F1F5 U+1F1EA"
  },
  "PF": {
    "calling_code": "689",
    "calling_code_all": "689",
    "code": "PF",
    "emoji": "ğŸ‡µğŸ‡«",
    "iso_codes": "",
    "name": "French Polynesia",
    "name_cn": "æ³•å±æ³¢åˆ©å°¼è¥¿äºš",
    "unicode": "U+1F1F5 U+1F1EB"
  },
  "PG": {
    "calling_code": "675",
    "calling_code_all": "675",
    "code": "PG",
    "emoji": "ğŸ‡µğŸ‡¬",
    "iso_codes": "",
    "name": "Papua New Guinea",
    "name_cn": "å·´å¸ƒäºšæ–°å‡ å†…äºš",
    "unicode": "U+1F1F5 U+1F1EC"
  },
  "PH": {
    "calling_code": "63",
    "calling_code_all": "63",
    "code": "PH",
    "emoji": "ğŸ‡µğŸ‡­",
    "iso_codes": "",
    "name": "Philippines",
    "name_cn": "è²å¾‹å®¾",
    "unicode": "U+1F1F5 U+1F1ED"
  },
  "PK": {
    "calling_code": "92",
    "calling_code_all": "92",
    "code": "PK",
    "emoji": "ğŸ‡µğŸ‡°",
    "iso_codes": "",
    "name": "Pakistan",
    "name_cn": "å·´åŸºæ–¯å¦",
    "unicode": "U+1F1F5 U+1F1F0"
  },
  "PL": {
    "calling_code": "48",
    "calling_code_all": "48",
    "code": "PL",
    "emoji": "ğŸ‡µğŸ‡±",
    "iso_codes": "",
    "name": "Poland",
    "name_cn": "æ³¢å…°",
    "unicode": "U+1F1F5 U+1F1F1"
  },
  "PM": {
    "calling_code": "508",
    "calling_code_all": "508",
    "code": "PM",
    "emoji": "ğŸ‡µğŸ‡²",
    "iso_codes": "",
    "name": "St. Pierre & Miquelon",
    "name_cn": "åœ£çš®åŸƒå°”å’Œå¯†å…‹éš†",
    "unicode": "U+1F1F5 U+1F1F2"
  },
  "PN": {
    "calling_code": "64",
    "calling_code_all": "64",
    "code": "PN",
    "emoji": "ğŸ‡µğŸ‡³",
    "iso_codes": "",
    "name": "Pitcairn Islands",
    "name_cn": "çš®ç‰¹å‡¯æ©ç¾¤å²›",
    "unicode": "U+1F1F5 U+1F1F3"
  },
  "PR": {
    "calling_code": "1787",
    "calling_code_all": "1-787, 1-939",
    "code": "PR",
    "emoji": "ğŸ‡µğŸ‡·",
    "iso_codes": "",
    "name": "Puerto Rico",
    "name_cn": "æ³¢å¤šé»å„",
    "unicode": "U+1F1F5 U+1F1F7"
  },
  "PS": {
    "calling_code": "970",
    "calling_code_all": "970",
    "code": "PS",
    "emoji": "ğŸ‡µğŸ‡¸",
    "iso_codes": "",
    "name": "Palestinian Territories",
    "name_cn": "å·´å‹’æ–¯å¦åœ°åŒº",
    "unicode": "U+1F1F5 U+1F1F8"
  },
  "PT": {
    "calling_code": "351",
    "calling_code_all": "351",
    "code": "PT",
    "emoji": "ğŸ‡µğŸ‡¹",
    "iso_codes": "",
    "name": "Portugal",
    "name_cn": "è‘¡è„ç‰™",
    "unicode": "U+1F1F5 U+1F1F9"
  },
  "PW": {
    "calling_code": "680",
    "calling_code_all": "680",
    "code": "PW",
    "emoji": "ğŸ‡µğŸ‡¼",
    "iso_codes": "",
    "name": "Palau",
    "name_cn": "å¸•åŠ³",
    "unicode": "U+1F1F5 U+1F1FC"
  },
  "PY": {
    "calling_code": "595",
    "calling_code_all": "595",
    "code": "PY",
    "emoji": "ğŸ‡µğŸ‡¾",
    "iso_codes": "",
    "name": "Paraguay",
    "name_cn": "å·´æ‹‰åœ­",
    "unicode": "U+1F1F5 U+1F1FE"
  },
  "QA": {
    "calling_code": "974",
    "calling_code_all": "974",
    "code": "QA",
    "emoji": "ğŸ‡¶ğŸ‡¦",
    "iso_codes": "",
    "name": "Qatar",
    "name_cn": "å¡å¡”å°”",
    "unicode": "U+1F1F6 U+1F1E6"
  },
  "RE": {
    "calling_code": "262",
    "calling_code_all": "262",
    "code": "RE",
    "emoji": "ğŸ‡·ğŸ‡ª",
    "iso_codes": "",
    "name": "RÃ©union",
    "name_cn": "ç•™å°¼æ±ª",
    "unicode": "U+1F1F7 U+1F1EA"
  },
  "RO": {
    "calling_code": "40",
    "calling_code_all": "40",
    "code": "RO",
    "emoji": "ğŸ‡·ğŸ‡´",
    "iso_codes": "",
    "name": "Romania",
    "name_cn": "ç½—é©¬å°¼äºš",
    "unicode": "U+1F1F7 U+1F1F4"
  },
  "RS": {
    "calling_code": "381",
    "calling_code_all": "381",
    "code": "RS",
    "emoji": "ğŸ‡·ğŸ‡¸",
    "iso_codes": "",
    "name": "Serbia",
    "name_cn": "å¡å°”ç»´äºšå’Œé»‘å±±",
    "unicode": "U+1F1F7 U+1F1F8"
  },
  "RU": {
    "calling_code": "7",
    "calling_code_all": "7",
    "code": "RU",
    "emoji": "ğŸ‡·ğŸ‡º",
    "iso_codes": "",
    "name": "Russia",
    "name_cn": "ä¿„ç½—æ–¯",
    "unicode": "U+1F1F7 U+1F1FA"
  },
  "RW": {
    "calling_code": "250",
    "calling_code_all": "250",
    "code": "RW",
    "emoji": "ğŸ‡·ğŸ‡¼",
    "iso_codes": "",
    "name": "Rwanda",
    "name_cn": "å¢æ—ºè¾¾",
    "unicode": "U+1F1F7 U+1F1FC"
  },
  "SA": {
    "calling_code": "966",
    "calling_code_all": "966",
    "code": "SA",
    "emoji": "ğŸ‡¸ğŸ‡¦",
    "iso_codes": "",
    "name": "Saudi Arabia",
    "name_cn": "æ²™ç‰¹é˜¿æ‹‰ä¼¯",
    "unicode": "U+1F1F8 U+1F1E6"
  },
  "SB": {
    "calling_code": "677",
    "calling_code_all": "677",
    "code": "SB",
    "emoji": "ğŸ‡¸ğŸ‡§",
    "iso_codes": "",
    "name": "Solomon Islands",
    "name_cn": "æ‰€ç½—é—¨ç¾¤å²›",
    "unicode": "U+1F1F8 U+1F1E7"
  },
  "SC": {
    "calling_code": "248",
    "calling_code_all": "248",
    "code": "SC",
    "emoji": "ğŸ‡¸ğŸ‡¨",
    "iso_codes": "",
    "name": "Seychelles",
    "name_cn": "å¡èˆŒå°”",
    "unicode": "U+1F1F8 U+1F1E8"
  },
  "SD": {
    "calling_code": "249",
    "calling_code_all": "249",
    "code": "SD",
    "emoji": "ğŸ‡¸ğŸ‡©",
    "iso_codes": "",
    "name": "Sudan",
    "name_cn": "è‹ä¸¹",
    "unicode": "U+1F1F8 U+1F1E9"
  },
  "SE": {
    "calling_code": "46",
    "calling_code_all": "46",
    "code": "SE",
    "emoji": "ğŸ‡¸ğŸ‡ª",
    "iso_codes": "",
    "name": "Sweden",
    "name_cn": "ç‘å…¸",
    "unicode": "U+1F1F8 U+1F1EA"
  },
  "SG": {
    "calling_code": "65",
    "calling_code_all": "65",
    "code": "SG",
    "emoji": "ğŸ‡¸ğŸ‡¬",
    "iso_codes": "",
    "name": "Singapore",
    "name_cn": "æ–°åŠ å¡",
    "unicode": "U+1F1F8 U+1F1EC"
  },
  "SH": {
    "calling_code": "290",
    "calling_code_all": "290",
    "code": "SH",
    "emoji": "ğŸ‡¸ğŸ‡­",
    "iso_codes": "",
    "name": "St. Helena",
    "name_cn": "åœ£èµ«å‹’æ‹¿å²›",
    "unicode": "U+1F1F8 U+1F1ED"
  },
  "SI": {
    "calling_code": "386",
    "calling_code_all": "386",
    "code": "SI",
    "emoji": "ğŸ‡¸ğŸ‡®",
    "iso_codes": "",
    "name": "Slovenia",
    "name_cn": "æ–¯æ´›æ–‡å°¼äºš",
    "unicode": "U+1F1F8 U+1F1EE"
  },
  "SJ": {
    "calling_code": "47",
    "calling_code_all": "47",
    "code": "SJ",
    "emoji": "ğŸ‡¸ğŸ‡¯",
    "iso_codes": "",
    "name": "Svalbard & Jan Mayen",
    "name_cn": "æ–¯ç“¦å°”å·´å²›å’Œæ‰¬é©¬å»¶å²›",
    "unicode": "U+1F1F8 U+1F1EF"
  },
  "SK": {
    "calling_code": "421",
    "calling_code_all": "421",
    "code": "SK",
    "emoji": "ğŸ‡¸ğŸ‡°",
    "iso_codes": "",
    "name": "Slovakia",
    "name_cn": "æ–¯æ´›ä¼å…‹",
    "unicode": "U+1F1F8 U+1F1F0"
  },
  "SL": {
    "calling_code": "232",
    "calling_code_all": "232",
    "code": "SL",
    "emoji": "ğŸ‡¸ğŸ‡±",
    "iso_codes": "",
    "name": "Sierra Leone",
    "name_cn": "å¡æ‹‰åˆ©",
    "unicode": "U+1F1F8 U+1F1F1"
  },
  "SM": {
    "calling_code": "378",
    "calling_code_all": "378",
    "code": "SM",
    "emoji": "ğŸ‡¸ğŸ‡²",
    "iso_codes": "",
    "name": "San Marino",
    "name_cn": "åœ£é©¬åŠ›è¯º",
    "unicode": "U+1F1F8 U+1F1F2"
  },
  "SN": {
    "calling_code": "221",
    "calling_code_all": "221",
    "code": "SN",
    "emoji": "ğŸ‡¸ğŸ‡³",
    "iso_codes": "",
    "name": "Senegal",
    "name_cn": "å¡å†…åŠ å°”",
    "unicode": "U+1F1F8 U+1F1F3"
  },
  "SO": {
    "calling_code": "252",
    "calling_code_all": "252",
    "code": "SO",
    "emoji": "ğŸ‡¸ğŸ‡´",
    "iso_codes": "",
    "name": "Somalia",
    "name_cn": "ç´¢é©¬é‡Œ",
    "unicode": "U+1F1F8 U+1F1F4"
  },
  "SR": {
    "calling_code": "597",
    "calling_code_all": "597",
    "code": "SR",
    "emoji": "ğŸ‡¸ğŸ‡·",
    "iso_codes": "",
    "name": "Suriname",
    "name_cn": "è‹é‡Œå—",
    "unicode": "U+1F1F8 U+1F1F7"
  },
  "SS": {
    "calling_code": "211",
    "calling_code_all": "211",
    "code": "SS",
    "emoji": "ğŸ‡¸ğŸ‡¸",
    "iso_codes": "",
    "name": "South Sudan",
    "name_cn": "å—é",
    "unicode": "U+1F1F8 U+1F1F8"
  },
  "ST": {
    "calling_code": "239",
    "calling_code_all": "239",
    "code": "ST",
    "emoji": "ğŸ‡¸ğŸ‡¹",
    "iso_codes": "",
    "name": "SÃ£o TomÃ© & PrÃ­ncipe",
    "name_cn": "åœ£å¤šç¾å’Œæ™®æ—è¥¿æ¯”",
    "unicode": "U+1F1F8 U+1F1F9"
  },
  "SV": {
    "calling_code": "503",
    "calling_code_all": "503",
    "code": "SV",
    "emoji": "ğŸ‡¸ğŸ‡»",
    "iso_codes": "",
    "name": "El Salvador",
    "name_cn": "è¨å°”ç“¦å¤š",
    "unicode": "U+1F1F8 U+1F1FB"
  },
  "SX": {
    "calling_code": "1721",
    "calling_code_all": "1-721",
    "code": "SX",
    "emoji": "ğŸ‡¸ğŸ‡½",
    "iso_codes": "",
    "name": "Sint Maarten",
    "name_cn": "åœ£é©¬ä¸å²›",
    "unicode": "U+1F1F8 U+1F1FD"
  },
  "SY": {
    "calling_code": "963",
    "calling_code_all": "963",
    "code": "SY",
    "emoji": "ğŸ‡¸ğŸ‡¾",
    "iso_codes": "",
    "name": "Syria",
    "name_cn": "å™åˆ©äºš",
    "unicode": "U+1F1F8 U+1F1FE"
  },
  "SZ": {
    "calling_code": "268",
    "calling_code_all": "268",
    "code": "SZ",
    "emoji": "ğŸ‡¸ğŸ‡¿",
    "iso_codes": "",
    "name": "Swaziland",
    "name_cn": "æ–¯å¨å£«å…°",
    "unicode": "U+1F1F8 U+1F1FF"
  },
  "TA": {
    "calling_code": "290",
    "calling_code_all": "290",
    "code": "TA",
    "emoji": "ğŸ‡¹ğŸ‡¦",
    "iso_codes": "",
    "name": "Tristan da Cunha",
    "name_cn": "ç‰¹é‡Œæ–¯å¦-è¾¾åº“å°¼äºšç¾¤å²›",
    "unicode": "U+1F1F9 U+1F1E6"
  },
  "TC": {
    "calling_code": "1649",
    "calling_code_all": "1-649",
    "code": "TC",
    "emoji": "ğŸ‡¹ğŸ‡¨",
    "iso_codes": "",
    "name": "Turks & Caicos Islands",
    "name_cn": "ç‰¹å…‹æ–¯å’Œå‡¯ç§‘æ–¯ç¾¤å²›",
    "unicode": "U+1F1F9 U+1F1E8"
  },
  "TD": {
    "calling_code": "235",
    "calling_code_all": "235",
    "code": "TD",
    "emoji": "ğŸ‡¹ğŸ‡©",
    "iso_codes": "",
    "name": "Chad",
    "name_cn": "ä¹å¾—",
    "unicode": "U+1F1F9 U+1F1E9"
  },
  "TF": {
    "calling_code": "262",
    "calling_code_all": "262",
    "code": "TF",
    "emoji": "ğŸ‡¹ğŸ‡«",
    "iso_codes": "",
    "name": "French Southern Territories",
    "name_cn": "æ³•å±æ³¢åˆ©å°¼è¥¿äºš",
    "unicode": "U+1F1F9 U+1F1EB"
  },
  "TG": {
    "calling_code": "228",
    "calling_code_all": "228",
    "code": "TG",
    "emoji": "ğŸ‡¹ğŸ‡¬",
    "iso_codes": "",
    "name": "Togo",
    "name_cn": "å¤šå“¥",
    "unicode": "U+1F1F9 U+1F1EC"
  },
  "TH": {
    "calling_code": "66",
    "calling_code_all": "66",
    "code": "TH",
    "emoji": "ğŸ‡¹ğŸ‡­",
    "iso_codes": "",
    "name": "Thailand",
    "name_cn": "æ³°å›½",
    "unicode": "U+1F1F9 U+1F1ED"
  },
  "TJ": {
    "calling_code": "992",
    "calling_code_all": "992",
    "code": "TJ",
    "emoji": "ğŸ‡¹ğŸ‡¯",
    "iso_codes": "",
    "name": "Tajikistan",
    "name_cn": "å¡”å‰å…‹æ–¯å¦",
    "unicode": "U+1F1F9 U+1F1EF"
  },
  "TK": {
    "calling_code": "690",
    "calling_code_all": "690",
    "code": "TK",
    "emoji": "ğŸ‡¹ğŸ‡°",
    "iso_codes": "",
    "name": "Tokelau",
    "name_cn": "æ‰˜å…‹åŠ³",
    "unicode": "U+1F1F9 U+1F1F0"
  },
  "TL": {
    "calling_code": "670",
    "calling_code_all": "670",
    "code": "TL",
    "emoji": "ğŸ‡¹ğŸ‡±",
    "iso_codes": "",
    "name": "Timor-Leste",
    "name_cn": "ä¸œå¸æ±¶",
    "unicode": "U+1F1F9 U+1F1F1"
  },
  "TM": {
    "calling_code": "993",
    "calling_code_all": "993",
    "code": "TM",
    "emoji": "ğŸ‡¹ğŸ‡²",
    "iso_codes": "",
    "name": "Turkmenistan",
    "name_cn": "åœŸåº“æ›¼æ–¯å¦",
    "unicode": "U+1F1F9 U+1F1F2"
  },
  "TN": {
    "calling_code": "216",
    "calling_code_all": "216",
    "code": "TN",
    "emoji": "ğŸ‡¹ğŸ‡³",
    "iso_codes": "",
    "name": "Tunisia",
    "name_cn": "çªå°¼æ–¯",
    "unicode": "U+1F1F9 U+1F1F3"
  },
  "TO": {
    "calling_code": "676",
    "calling_code_all": "676",
    "code": "TO",
    "emoji": "ğŸ‡¹ğŸ‡´",
    "iso_codes": "",
    "name": "Tonga",
    "name_cn": "æ±¤åŠ ",
    "unicode": "U+1F1F9 U+1F1F4"
  },
  "TR": {
    "calling_code": "90",
    "calling_code_all": "90",
    "code": "TR",
    "emoji": "ğŸ‡¹ğŸ‡·",
    "iso_codes": "",
    "name": "Turkey",
    "name_cn": "åœŸè€³å…¶",
    "unicode": "U+1F1F9 U+1F1F7"
  },
  "TT": {
    "calling_code": "1868",
    "calling_code_all": "1-868",
    "code": "TT",
    "emoji": "ğŸ‡¹ğŸ‡¹",
    "iso_codes": "",
    "name": "Trinidad & Tobago",
    "name_cn": "ç‰¹ç«‹å°¼è¾¾å’Œå¤šå·´å“¥",
    "unicode": "U+1F1F9 U+1F1F9"
  },
  "TV": {
    "calling_code": "688",
    "calling_code_all": "688",
    "code": "TV",
    "emoji": "ğŸ‡¹ğŸ‡»",
    "iso_codes": "",
    "name": "Tuvalu",
    "name_cn": "å›¾ç“¦å¢",
    "unicode": "U+1F1F9 U+1F1FB"
  },
  "TW": {
    "calling_code": "886",
    "calling_code_all": "886",
    "code": "TW",
    "emoji": "ğŸ‡¹ğŸ‡¼",
    "iso_codes": "",
    "name": "Taiwan",
    "name_cn": "å°æ¹¾",
    "unicode": "U+1F1F9 U+1F1FC"
  },
  "TZ": {
    "calling_code": "255",
    "calling_code_all": "255",
    "code": "TZ",
    "emoji": "ğŸ‡¹ğŸ‡¿",
    "iso_codes": "",
    "name": "Tanzania",
    "name_cn": "å¦æ¡‘å°¼äºš",
    "unicode": "U+1F1F9 U+1F1FF"
  },
  "UA": {
    "calling_code": "380",
    "calling_code_all": "380",
    "code": "UA",
    "emoji": "ğŸ‡ºğŸ‡¦",
    "iso_codes": "",
    "name": "Ukraine",
    "name_cn": "ä¹Œå…‹å…°",
    "unicode": "U+1F1FA U+1F1E6"
  },
  "UG": {
    "calling_code": "256",
    "calling_code_all": "256",
    "code": "UG",
    "emoji": "ğŸ‡ºğŸ‡¬",
    "iso_codes": "",
    "name": "Uganda",
    "name_cn": "ä¹Œå¹²è¾¾",
    "unicode": "U+1F1FA U+1F1EC"
  },
  "UM": {
    "calling_code": "246",
    "calling_code_all": "246",
    "code": "UM",
    "emoji": "ğŸ‡ºğŸ‡²",
    "iso_codes": "",
    "name": "U.S. Outlying Islands",
    "name_cn": "ç¾å›½æœ¬åœŸå¤–å°å²›å±¿",
    "unicode": "U+1F1FA U+1F1F2"
  },
  "US": {
    "calling_code": "1",
    "calling_code_all": "1",
    "code": "US",
    "emoji": "ğŸ‡ºğŸ‡¸",
    "iso_codes": "",
    "name": "United States",
    "name_cn": "ç¾å›½",
    "unicode": "U+1F1FA U+1F1F8"
  },
  "UY": {
    "calling_code": "598",
    "calling_code_all": "598",
    "code": "UY",
    "emoji": "ğŸ‡ºğŸ‡¾",
    "iso_codes": "",
    "name": "Uruguay",
    "name_cn": "ä¹Œæ‹‰åœ­",
    "unicode": "U+1F1FA U+1F1FE"
  },
  "UZ": {
    "calling_code": "998",
    "calling_code_all": "998",
    "code": "UZ",
    "emoji": "ğŸ‡ºğŸ‡¿",
    "iso_codes": "",
    "name": "Uzbekistan",
    "name_cn": "ä¹Œå…¹åˆ«å…‹æ–¯å¦",
    "unicode": "U+1F1FA U+1F1FF"
  },
  "VA": {
    "calling_code": "379",
    "calling_code_all": "379",
    "code": "VA",
    "emoji": "ğŸ‡»ğŸ‡¦",
    "iso_codes": "",
    "name": "Vatican City",
    "name_cn": "æ¢µè’‚å†ˆ",
    "unicode": "U+1F1FB U+1F1E6"
  },
  "VC": {
    "calling_code": "1784",
    "calling_code_all": "1-784",
    "code": "VC",
    "emoji": "ğŸ‡»ğŸ‡¨",
    "iso_codes": "",
    "name": "St. Vincent & Grenadines",
    "name_cn": "åœ£æ–‡æ£®ç‰¹å’Œæ ¼æ—çº³ä¸æ–¯",
    "unicode": "U+1F1FB U+1F1E8"
  },
  "VE": {
    "calling_code": "58",
    "calling_code_all": "58",
    "code": "VE",
    "emoji": "ğŸ‡»ğŸ‡ª",
    "iso_codes": "",
    "name": "Venezuela",
    "name_cn": "å§”å†…ç‘æ‹‰",
    "unicode": "U+1F1FB U+1F1EA"
  },
  "VG": {
    "calling_code": "1284",
    "calling_code_all": "1-284",
    "code": "VG",
    "emoji": "ğŸ‡»ğŸ‡¬",
    "iso_codes": "",
    "name": "British Virgin Islands",
    "name_cn": "è‹±å±ç»´å°”äº¬ç¾¤å²›",
    "unicode": "U+1F1FB U+1F1EC"
  },
  "VI": {
    "calling_code": "1340",
    "calling_code_all": "1-340",
    "code": "VI",
    "emoji": "ğŸ‡»ğŸ‡®",
    "iso_codes": "",
    "name": "U.S. Virgin Islands",
    "name_cn": "ç¾å±ç»´äº¬ç¾¤å²›",
    "unicode": "U+1F1FB U+1F1EE"
  },
  "VN": {
    "calling_code": "84",
    "calling_code_all": "84",
    "code": "VN",
    "emoji": "ğŸ‡»ğŸ‡³",
    "iso_codes": "",
    "name": "Vietnam",
    "name_cn": "è¶Šå—",
    "unicode": "U+1F1FB U+1F1F3"
  },
  "VU": {
    "calling_code": "678",
    "calling_code_all": "678",
    "code": "VU",
    "emoji": "ğŸ‡»ğŸ‡º",
    "iso_codes": "",
    "name": "Vanuatu",
    "name_cn": "ç“¦åŠªé˜¿å›¾",
    "unicode": "U+1F1FB U+1F1FA"
  },
  "WF": {
    "calling_code": "681",
    "calling_code_all": "681",
    "code": "WF",
    "emoji": "ğŸ‡¼ğŸ‡«",
    "iso_codes": "",
    "name": "Wallis & Futuna",
    "name_cn": "ç“¦åˆ©æ–¯å’Œå¯Œå›¾çº³",
    "unicode": "U+1F1FC U+1F1EB"
  },
  "WS": {
    "calling_code": "685",
    "calling_code_all": "685",
    "code": "WS",
    "emoji": "ğŸ‡¼ğŸ‡¸",
    "iso_codes": "",
    "name": "Samoa",
    "name_cn": "è¨æ‘©äºš",
    "unicode": "U+1F1FC U+1F1F8"
  },
  "XK": {
    "calling_code": "383",
    "calling_code_all": "383",
    "code": "XK",
    "emoji": "ğŸ‡½ğŸ‡°",
    "iso_codes": "",
    "name": "Kosovo",
    "name_cn": "ç§‘ç´¢æ²ƒ",
    "unicode": "U+1F1FD U+1F1F0"
  },
  "YE": {
    "calling_code": "967",
    "calling_code_all": "967",
    "code": "YE",
    "emoji": "ğŸ‡¾ğŸ‡ª",
    "iso_codes": "",
    "name": "Yemen",
    "name_cn": "ä¹Ÿé—¨",
    "unicode": "U+1F1FE U+1F1EA"
  },
  "YT": {
    "calling_code": "262",
    "calling_code_all": "262",
    "code": "YT",
    "emoji": "ğŸ‡¾ğŸ‡¹",
    "iso_codes": "",
    "name": "Mayotte",
    "name_cn": "é©¬çº¦ç‰¹",
    "unicode": "U+1F1FE U+1F1F9"
  },
  "ZA": {
    "calling_code": "27",
    "calling_code_all": "27",
    "code": "ZA",
    "emoji": "ğŸ‡¿ğŸ‡¦",
    "iso_codes": "",
    "name": "South Africa",
    "name_cn": "å—é",
    "unicode": "U+1F1FF U+1F1E6"
  },
  "ZM": {
    "calling_code": "260",
    "calling_code_all": "260",
    "code": "ZM",
    "emoji": "ğŸ‡¿ğŸ‡²",
    "iso_codes": "",
    "name": "Zambia",
    "name_cn": "èµæ¯”äºš",
    "unicode": "U+1F1FF U+1F1F2"
  },
  "ZW": {
    "calling_code": "263",
    "calling_code_all": "263",
    "code": "ZW",
    "emoji": "ğŸ‡¿ğŸ‡¼",
    "iso_codes": "",
    "name": "Zimbabwe",
    "name_cn": "æ´¥å·´å¸ƒéŸ¦",
    "unicode": "U+1F1FF U+1F1FC"
  }
}